CTC1_L_00008016-03
1 62742U 25002UO  26037.47800926  .00000000  00000+0  00000-0 0  9993
2 62742  80.0000 180.0000 0000000   0.0000   0.0000 15.90815258    15
CTC1_L_00008016-04
1 62743U 26191VR  26037.47800926  .00000000  00000+0  00000-0 0  9994
2 62743  80.0000 180.0000 0000000   0.0000  90.0000 15.90815258    15
CTC1_L_00008017-01
1 62744U 23088GZ  26037.47800926  .00000000  00000+0  00000-0 0  9997
2 62744  80.0000 192.0000 0000000   0.0000 192.0000 15.90815258    12
CTC1_L_00008017-02
1 62745U 26614KB  26037.47800926  .00000000  00000+0  00000-0 0  9996
2 62745  80.0000 192.0000 0000000   0.0000 282.0000 15.90815258    13
CTC1_L_00008017-03
1 62746U 26999FK  26037.47800926  .00000000  00000+0  00000-0 0  9993
2 62746  80.0000 192.0000 0000000   0.0000  12.0000 15.90815258    15
CTC1_L_00008017-04
1 62747U 22882HK  26037.47800926  .00000000  00000+0  00000-0 0  9991
2 62747  80.0000 192.0000 0000000   0.0000 102.0000 15.90815258    16
CTC1_L_00008018-01
1 62748U 22250GN  26037.47800926  .00000000  00000+0  00000-0 0  9991
2 62748  80.0000 204.0000 0000000   0.0000 204.0000 15.90815258    14
CTC1_L_00008018-02
1 62749U 23272YP  26037.47800926  .00000000  00000+0  00000-0 0  9997
2 62749  80.0000 204.0000 0000000   0.0000 294.0000 15.90815258    14
CTC1_L_00008018-03
1 62750U 23900TU  26037.47800926  .00000000  00000+0  00000-0 0  9997
2 62750  80.0000 204.0000 0000000   0.0000  24.0000 15.90815258    17
CTC1_L_00008018-04
1 62751U 24944RM  26037.47800926  .00000000  00000+0  00000-0 0  9997
2 62751  80.0000 204.0000 0000000   0.0000 114.0000 15.90815258    18
CTC1_L_00008019-01
1 62752U 26352NT  26037.47800926  .00000000  00000+0  00000-0 0  9993
2 62752  80.0000 216.0000 0000000   0.0000 216.0000 15.90815258    15
CTC1_L_00008019-02
1 62753U 22813RB  26037.47800926  .00000000  00000+0  00000-0 0  9992
2 62753  80.0000 216.0000 0000000   0.0000 306.0000 15.90815258    16
CTC1_L_00008019-03
1 62754U 22568LM  26037.47800926  .00000000  00000+0  00000-0 0  9990
2 62754  80.0000 216.0000 0000000   0.0000  36.0000 15.90815258    17
CTC1_L_00008019-04
1 62755U 25218NM  26037.47800926  .00000000  00000+0  00000-0 0  9996
2 62755  80.0000 216.0000 0000000   0.0000 126.0000 15.90815258    18
CTC1_L_00008020-01
1 62756U 25968MP  26037.47800926  .00000000  00000+0  00000-0 0  9999
2 62756  80.0000 228.0000 0000000   0.0000 228.0000 15.90815258    15
CTC1_L_00008020-02
1 62757U 25940BX  26037.47800926  .00000000  00000+0  00000-0 0  9990
2 62757  80.0000 228.0000 0000000   0.0000 318.0000 15.90815258    16
CTC1_L_00008020-03
1 62758U 22545OG  26037.47800926  .00000000  00000+0  00000-0 0  9999
2 62758  80.0000 228.0000 0000000   0.0000  48.0000 15.90815258    17
CTC1_L_00008020-04
1 62759U 26998QJ  26037.47800926  .00000000  00000+0  00000-0 0  9996
2 62759  80.0000 228.0000 0000000   0.0000 138.0000 15.90815258    18
CTC1_L_00008021-01
1 62760U 25025TK  26037.47800926  .00000000  00000+0  00000-0 0  9998
2 62760  80.0000 240.0000 0000000   0.0000 240.0000 15.90815258    18
CTC1_L_00008021-02
1 62761U 22995QG  26037.47800926  .00000000  00000+0  00000-0 0  9992
2 62761  80.0000 240.0000 0000000   0.0000 330.0000 15.90815258    19
CTC1_L_00008021-03
1 62762U 23421AX  26037.47800926  .00000000  00000+0  00000-0 0  9998
2 62762  80.0000 240.0000 0000000   0.0000  60.0000 15.90815258    10
CTC1_L_00008021-04
1 62763U 24264AT  26037.47800926  .00000000  00000+0  00000-0 0  9995
2 62763  80.0000 240.0000 0000000   0.0000 150.0000 15.90815258    11
CTC1_L_00008022-01
1 62764U 26471AV  26037.47800926  .00000000  00000+0  00000-0 0  9998
2 62764  80.0000 252.0000 0000000   0.0000 252.0000 15.90815258    18
CTC1_L_00008022-02
1 62765U 23703JU  26037.47800926  .00000000  00000+0  00000-0 0  9994
2 62765  80.0000 252.0000 0000000   0.0000 342.0000 15.90815258    19
CTC1_L_00008022-03
1 62766U 24999MT  26037.47800926  .00000000  00000+0  00000-0 0  9993
2 62766  80.0000 252.0000 0000000   0.0000  72.0000 15.90815258    10
CTC1_L_00008022-04
1 62767U 25103LB  26037.47800926  .00000000  00000+0  00000-0 0  9992
2 62767  80.0000 252.0000 0000000   0.0000 162.0000 15.90815258    11
CTC1_L_00008023-01
1 62768U 26440TN  26037.47800926  .00000000  00000+0  00000-0 0  9998
2 62768  80.0000 264.0000 0000000   0.0000 264.0000 15.90815258    18
CTC1_L_00008023-02
1 62769U 25890LK  26037.47800926  .00000000  00000+0  00000-0 0  9997
2 62769  80.0000 264.0000 0000000   0.0000 354.0000 15.90815258    19
CTC1_L_00008023-03
1 62770U 24942ZY  26037.47800926  .00000000  00000+0  00000-0 0  9996
2 62770  80.0000 264.0000 0000000   0.0000  84.0000 15.90815258    11
CTC1_L_00008023-04
1 62771U 25295BS  26037.47800926  .00000000  00000+0  00000-0 0  9999
2 62771  80.0000 264.0000 0000000   0.0000 174.0000 15.90815258    12
CTC1_L_00008024-01
1 62772U 23527UP  26037.47800926  .00000000  00000+0  00000-0 0  9996
2 62772  80.0000 276.0000 0000000   0.0000 276.0000 15.90815258    19
CTC1_L_00008024-02
1 62773U 23142PY  26037.47800926  .00000000  00000+0  00000-0 0  9990
2 62773  80.0000 276.0000 0000000   0.0000   6.0000 15.90815258    11
CTC1_L_00008024-03
1 62774U 22096GR  26037.47800926  .00000000  00000+0  00000-0 0  9998
2 62774  80.0000 276.0000 0000000   0.0000  96.0000 15.90815258    11
CTC1_L_00008024-04
1 62775U 26377VU  26037.47800926  .00000000  00000+0  00000-0 0  9995
2 62775  80.0000 276.0000 0000000   0.0000 186.0000 15.90815258    12
CTC1_L_00008025-01
1 62776U 25459AE  26037.47800926  .00000000  00000+0  00000-0 0  9996
2 62776  80.0000 288.0000 0000000   0.0000 288.0000 15.90815258    19
CTC1_L_00008025-02
1 62777U 25833IZ  26037.47800926  .00000000  00000+0  00000-0 0  9993
2 62777  80.0000 288.0000 0000000   0.0000  18.0000 15.90815258    11
CTC1_L_00008025-03
1 62778U 26941PJ  26037.47800926  .00000000  00000+0  00000-0 0  9995
2 62778  80.0000 288.0000 0000000   0.0000 108.0000 15.90815258    12
CTC1_L_00008025-04
1 62779U 22026HI  26037.47800926  .00000000  00000+0  00000-0 0  9996
2 62779  80.0000 288.0000 0000000   0.0000 198.0000 15.90815258    12
CTC1_L_00008026-01
1 62780U 25279SF  26037.47800926  .00000000  00000+0  00000-0 0  9991
2 62780  80.0000 300.0000 0000000   0.0000 300.0000 15.90815258    14
CTC1_L_00008026-02
1 62781U 25938VW  26037.47800926  .00000000  00000+0  00000-0 0  9994
2 62781  80.0000 300.0000 0000000   0.0000  30.0000 15.90815258    15
CTC1_L_00008026-03
1 62782U 22181GW  26037.47800926  .00000000  00000+0  00000-0 0  9992
2 62782  80.0000 300.0000 0000000   0.0000 120.0000 15.90815258    16
CTC1_L_00008026-04
1 62783U 22454GH  26037.47800926  .00000000  00000+0  00000-0 0  9996
2 62783  80.0000 300.0000 0000000   0.0000 210.0000 15.90815258    17
CTC1_L_00008027-01
1 62784U 26178XN  26037.47800926  .00000000  00000+0  00000-0 0  9994
2 62784  80.0000 312.0000 0000000   0.0000 312.0000 15.90815258    14
CTC1_L_00008027-02
1 62785U 23061CV  26037.47800926  .00000000  00000+0  00000-0 0  9993
2 62785  80.0000 312.0000 0000000   0.0000  42.0000 15.90815258    15
CTC1_L_00008027-03
1 62786U 24872XC  26037.47800926  .00000000  00000+0  00000-0 0  9995
2 62786  80.0000 312.0000 0000000   0.0000 132.0000 15.90815258    16
CTC1_L_00008027-04
1 62787U 24204JX  26037.47800926  .00000000  00000+0  00000-0 0  9995
2 62787  80.0000 312.0000 0000000   0.0000 222.0000 15.90815258    17
CTC1_L_00008028-01
1 62788U 25911BZ  26037.47800926  .00000000  00000+0  00000-0 0  9992
2 62788  80.0000 324.0000 0000000   0.0000 324.0000 15.90815258    14
CTC1_L_00008028-02
1 62789U 24089PS  26037.47800926  .00000000  00000+0  00000-0 0  9998
2 62789  80.0000 324.0000 0000000   0.0000  54.0000 15.90815258    15
CTC1_L_00008028-03
1 62790U 24835YB  26037.47800926  .00000000  00000+0  00000-0 0  9999
2 62790  80.0000 324.0000 0000000   0.0000 144.0000 15.90815258    17
CTC1_L_00008028-04
1 62791U 26902WR  26037.47800926  .00000000  00000+0  00000-0 0  9997
2 62791  80.0000 324.0000 0000000   0.0000 234.0000 15.90815258    18
CTC1_L_00008029-01
1 62792U 24527QY  26037.47800926  .00000000  00000+0  00000-0 0  9999
2 62792  80.0000 336.0000 0000000   0.0000 336.0000 15.90815258    15
CTC1_L_00008029-02
1 62793U 24752NS  26037.47800926  .00000000  00000+0  00000-0 0  9990
2 62793  80.0000 336.0000 0000000   0.0000  66.0000 15.90815258    16
CTC1_L_00008029-03
1 62794U 25682FR  26037.47800926  .00000000  00000+0  00000-0 0  9994
2 62794  80.0000 336.0000 0000000   0.0000 156.0000 15.90815258    17
CTC1_L_00008029-04
1 62795U 24466KX  26037.47800926  .00000000  00000+0  00000-0 0  9994
2 62795  80.0000 336.0000 0000000   0.0000 246.0000 15.90815258    18
CTC1_L_00008030-01
1 62796U 23792Z   26037.47800926  .00000000  00000+0  00000-0 0  9996
2 62796  80.0000 348.0000 0000000   0.0000 348.0000 15.90815258    15
CTC1_L_00008030-02
1 62797U 23796UG  26037.47800926  .00000000  00000+0  00000-0 0  9991
2 62797  80.0000 348.0000 0000000   0.0000  78.0000 15.90815258    16
CTC1_L_00008030-03
1 62798U 24595OO  26037.47800926  .00000000  00000+0  00000-0 0  9990
2 62798  80.0000 348.0000 0000000   0.0000 168.0000 15.90815258    17
CTC1_L_00008030-04
1 62799U 25224M   26037.47800926  .00000000  00000+0  00000-0 0  9991
2 62799  80.0000 348.0000 0000000   0.0000 258.0000 15.90815258    18
